{
    "links": {
        "self": "http://www.neowsapp.com/rest/v1/neo/3879243?api_key=iIulBulltgU6a56xZRHN4H3l9WmuAYTsLGpBGhQ2"
    },
    "id": "3879243",
    "neo_reference_id": "3879243",
    "name": "(2019 UT)",
    "designation": "2019 UT",
    "nasa_jpl_url": "http://ssd.jpl.nasa.gov/sbdb.cgi?sstr=3879243",
    "absolute_magnitude_h": 28.0,
    "estimated_diameter": {
        "kilometers": {
            "estimated_diameter_min": 0.0066765941,
            "estimated_diameter_max": 0.0149293183
        },
        "meters": {
            "estimated_diameter_min": 6.676594135,
            "estimated_diameter_max": 14.9293183439
        },
        "miles": {
            "estimated_diameter_min": 0.004148642,
            "estimated_diameter_max": 0.0092766455
        },
        "feet": {
            "estimated_diameter_min": 21.9048371017,
            "estimated_diameter_max": 48.9807047955
        }
    },
    "is_potentially_hazardous_asteroid": false,
    "close_approach_data": [
        {
            "close_approach_date": "2019-10-22",
            "close_approach_date_full": "2019-Oct-22 07:28",
            "epoch_date_close_approach": 1571729280000,
            "relative_velocity": {
                "kilometers_per_second": "11.2346839226",
                "kilometers_per_hour": "40444.8621213712",
                "miles_per_hour": "25130.8644664709"
            },
            "miss_distance": {
                "astronomical": "0.0060618324",
                "lunar": "2.3580528036",
                "kilometers": "906837.215336988",
                "miles": "563482.5165789144"
            },
            "orbiting_body": "Earth"
        },
        {
            "close_approach_date": "2019-10-22",
            "close_approach_date_full": "2019-Oct-22 12:44",
            "epoch_date_close_approach": 1571748240000,
            "relative_velocity": {
                "kilometers_per_second": "10.5270196649",
                "kilometers_per_hour": "37897.2707934866",
                "miles_per_hour": "23547.8902883195"
            },
            "miss_distance": {
                "astronomical": "0.0043505567",
                "lunar": "1.6923665563",
                "kilometers": "650834.015634229",
                "miles": "404409.5045972002"
            },
            "orbiting_body": "Moon"
        }
    ],
    "orbital_data": {
        "orbit_id": "2",
        "orbit_determination_date": "2019-10-20 06:05:35",
        "first_observation_date": "2019-10-19",
        "last_observation_date": "2019-10-20",
        "data_arc_in_days": 1,
        "observations_used": 19,
        "orbit_uncertainty": "8",
        "minimum_orbit_intersection": ".0029623",
        "jupiter_tisserand_invariant": "3.623",
        "epoch_osculation": "2458776.5",
        "eccentricity": ".556281268156863",
        "semi_major_axis": "2.006646141961153",
        "inclination": "3.474451289371259",
        "ascending_node_longitude": "211.8410597540405",
        "orbital_period": "1038.256403989759",
        "perihelion_distance": ".8903864813689264",
        "perihelion_argument": "222.2694140934425",
        "aphelion_distance": "3.12290580255338",
        "perihelion_time": "2458812.425159063954",
        "mean_anomaly": "347.5434842363361",
        "mean_motion": ".3467351596547926",
        "equinox": "J2000",
        "orbit_class": {
            "orbit_class_type": "APO",
            "orbit_class_description": "Near-Earth asteroid orbits which cross the Earth’s orbit similar to that of 1862 Apollo",
            "orbit_class_range": "a (semi-major axis) > 1.0 AU; q (perihelion) < 1.017 AU"
        }
    },
    "is_sentry_object": false
}